{
  "norad_id": 56715,
  "name": "ONEWEB-0679",
  "history": [
    {
      "epoch": "2026-03-28T21:57:26.666208Z",
      "apogee_km": 1198.5940598902462,
      "perigee_km": 1196.913727290048,
      "latitude_deg": -3.4621986224599863e-06,
      "longitude_deg": 89.03069606752878,
      "height_km": 1200.7958424405538,
      "semi_major_axis_km": 7575.890893590147,
      "eccentricity": 0.0001109,
      "inclination_deg": 87.9041,
      "raan_deg": 244.7203,
      "arg_perigee_deg": 100.0623,
      "mean_anomaly_deg": 260.0633,
      "mean_motion_rev_day": 13.1659498
    },
    {
      "epoch": "2026-03-30T03:08:24.817056Z",
      "apogee_km": 1198.6048040000878,
      "perigee_km": 1196.9002288588927,
      "latitude_deg": 7.224342173938459e-05,
      "longitude_deg": 9.848108432428008,
      "height_km": 1200.8162286079432,
      "semi_major_axis_km": 7575.88951642949,
      "eccentricity": 0.0001125,
      "inclination_deg": 87.9043,
      "raan_deg": 244.4785,
      "arg_perigee_deg": 101.4081,
      "mean_anomaly_deg": 258.7177,
      "mean_motion_rev_day": 13.16595339
    },
    {
      "epoch": "2026-03-30T10:26:09.343104Z",
      "apogee_km": 1198.6040894837897,
      "perigee_km": 1196.8999690055525,
      "latitude_deg": -2.47990544596316e-06,
      "longitude_deg": -99.94764295810229,
      "height_km": 1200.8229132657887,
      "semi_major_axis_km": 7575.889029244671,
      "eccentricity": 0.00011247,
      "inclination_deg": 87.9043,
      "raan_deg": 244.4179,
      "arg_perigee_deg": 101.9025,
      "mean_anomaly_deg": 258.2232,
      "mean_motion_rev_day": 13.16595466
    },
    {
      "epoch": "2026-03-30T19:33:20.015136Z",
      "apogee_km": 1198.603783532987,
      "perigee_km": 1196.8998146242984,
      "latitude_deg": 3.187353538213682e-05,
      "longitude_deg": 122.80766198997725,
      "height_km": 1200.8328072243007,
      "semi_major_axis_km": 7575.8887990786425,
      "eccentricity": 0.00011246,
      "inclination_deg": 87.9044,
      "raan_deg": 244.3422,
      "arg_perigee_deg": 102.6001,
      "mean_anomaly_deg": 257.5256,
      "mean_motion_rev_day": 13.16595526
    },
    {
      "epoch": "2026-03-31T21:05:25.905120Z",
      "apogee_km": 1198.614083057846,
      "perigee_km": 1196.8913257390668,
      "latitude_deg": 7.41736525791472e-06,
      "longitude_deg": 98.52243701579206,
      "height_km": 1200.8670644094877,
      "semi_major_axis_km": 7575.889704398456,
      "eccentricity": 0.0001137,
      "inclination_deg": 87.9045,
      "raan_deg": 244.1302,
      "arg_perigee_deg": 104.7426,
      "mean_anomaly_deg": 255.3831,
      "mean_motion_rev_day": 13.1659529
    },
    {
      "epoch": "2026-04-01T17:09:13.339872Z",
      "apogee_km": 1198.6208340912453,
      "perigee_km": 1196.8829251822572,
      "latitude_deg": -2.4642768102566393e-06,
      "longitude_deg": 156.58432753440653,
      "height_km": 1200.892292704247,
      "semi_major_axis_km": 7575.888879636751,
      "eccentricity": 0.0001147,
      "inclination_deg": 87.9047,
      "raan_deg": 243.9637,
      "arg_perigee_deg": 106.3935,
      "mean_anomaly_deg": 253.7322,
      "mean_motion_rev_day": 13.16595505
    },
    {
      "epoch": "2026-04-02T16:51:53.015616Z",
      "apogee_km": 1198.618733713638,
      "perigee_km": 1196.8823402901571,
      "latitude_deg": -6.884582655840367e-05,
      "longitude_deg": 159.7485333282014,
      "height_km": 1200.9170105884232,
      "semi_major_axis_km": 7575.887537001897,
      "eccentricity": 0.0001146,
      "inclination_deg": 87.9049,
      "raan_deg": 243.767,
      "arg_perigee_deg": 108.2072,
      "mean_anomaly_deg": 251.9183,
      "mean_motion_rev_day": 13.16595855
    },
    {
      "epoch": "2026-04-02T22:20:11.417280Z",
      "apogee_km": 1198.6211092479498,
      "perigee_km": 1196.881836772316,
      "latitude_deg": 4.470427115534787e-05,
      "longitude_deg": 77.40174607302116,
      "height_km": 1200.92508693744,
      "semi_major_axis_km": 7575.888473010133,
      "eccentricity": 0.00011479,
      "inclination_deg": 87.9049,
      "raan_deg": 243.7216,
      "arg_perigee_deg": 108.6728,
      "mean_anomaly_deg": 251.4528,
      "mean_motion_rev_day": 13.16595611
    },
    {
      "epoch": "2026-04-03T20:13:25.010976Z",
      "apogee_km": 1198.6368739005447,
      "perigee_km": 1196.8671462277925,
      "latitude_deg": 1.1310685184009316e-05,
      "longitude_deg": 108.0146328011689,
      "height_km": 1200.9466995625019,
      "semi_major_axis_km": 7575.889010064168,
      "eccentricity": 0.0001168,
      "inclination_deg": 87.9053,
      "raan_deg": 243.54,
      "arg_perigee_deg": 109.7843,
      "mean_anomaly_deg": 250.3414,
      "mean_motion_rev_day": 13.16595471
    },
    {
      "epoch": "2026-04-04T19:56:04.689312Z",
      "apogee_km": 1198.677838930951,
      "perigee_km": 1196.8217466667156,
      "latitude_deg": -3.1650573262521664e-05,
      "longitude_deg": 111.1786269744232,
      "height_km": 1200.9720638235033,
      "semi_major_axis_km": 7575.886792798833,
      "eccentricity": 0.0001225,
      "inclination_deg": 87.9052,
      "raan_deg": 243.3431,
      "arg_perigee_deg": 110.6417,
      "mean_anomaly_deg": 249.4845,
      "mean_motion_rev_day": 13.16596049
    },
    {
      "epoch": "2026-04-05T10:31:33.775104Z",
      "apogee_km": 1198.6892799234993,
      "perigee_km": 1196.8153079477524,
      "latitude_deg": 7.81661367568793e-05,
      "longitude_deg": -108.41280880296114,
      "height_km": 1200.9839404010156,
      "semi_major_axis_km": 7575.889293935626,
      "eccentricity": 0.00012368,
      "inclination_deg": 87.9054,
      "raan_deg": 243.2221,
      "arg_perigee_deg": 111.0507,
      "mean_anomaly_deg": 249.0757,
      "mean_motion_rev_day": 13.16595397
    },
    {
      "epoch": "2026-04-05T19:38:44.446272Z",
      "apogee_km": 1198.6971395570827,
      "perigee_km": 1196.8061977453863,
      "latitude_deg": -3.176438159021276e-06,
      "longitude_deg": 114.34239442458855,
      "height_km": 1200.9930051240506,
      "semi_major_axis_km": 7575.888668651234,
      "eccentricity": 0.0001248,
      "inclination_deg": 87.9054,
      "raan_deg": 243.1463,
      "arg_perigee_deg": 111.4825,
      "mean_anomaly_deg": 248.6439,
      "mean_motion_rev_day": 13.1659556
    }
  ]
}